$$SOE
2460728.500000000, A.D. 2025-Feb-22 00:00:00.0000, 4.056742942364962E+08, 2.541323243075719E+07, 1.430647823488842E+08,
2460735.500000000, A.D. 2025-Mar-01 00:00:00.0000, 4.053698492656745E+08, 3.456454924983621E+07, 1.451628428909745E+08,
2460742.500000000, A.D. 2025-Mar-08 00:00:00.0000, 4.048212408358902E+08, 4.369502843775294E+07, 1.471734615713925E+08,
2460749.500000000, A.D. 2025-Mar-15 00:00:00.0000, 4.040304743627459E+08, 5.279935311050350E+07, 1.490960344168081E+08,
2460756.500000000, A.D. 2025-Mar-22 00:00:00.0000, 4.029995800545987E+08, 6.187228467312387E+07, 1.509299847853503E+08,
2460763.500000000, A.D. 2025-Mar-29 00:00:00.0000, 4.017306111193572E+08, 7.090865648656040E+07, 1.526747619056361E+08,
2460770.500000000, A.D. 2025-Apr-05 00:00:00.0000, 4.002256438753717E+08, 7.990336853353557E+07, 1.543298394317003E+08,
2460777.500000000, A.D. 2025-Apr-12 00:00:00.0000, 3.984867778295946E+08, 8.885138318509334E+07, 1.558947141941186E+08,
2460784.500000000, A.D. 2025-Apr-19 00:00:00.0000, 3.965161355268189E+08, 9.774772118375510E+07, 1.573689050885142E+08,
2460791.500000000, A.D. 2025-Apr-26 00:00:00.0000, 3.943158624336171E+08, 1.065874576372480E+08, 1.587519520562441E+08,
2460798.500000000, A.D. 2025-May-03 00:00:00.0000, 3.918881269634329E+08, 1.153657180389705E+08, 1.600434151449691E+08,
2460805.500000000, A.D. 2025-May-10 00:00:00.0000, 3.892351206650590E+08, 1.240776743209103E+08, 1.612428736441104E+08,
2460812.500000000, A.D. 2025-May-17 00:00:00.0000, 3.863590586058144E+08, 1.327185408951085E+08, 1.623499252858396E+08,
2460819.500000000, A.D. 2025-May-24 00:00:00.0000, 3.832621801189717E+08, 1.412835706262251E+08, 1.633641854890370E+08,
2460826.500000000, A.D. 2025-May-31 00:00:00.0000, 3.799467503295021E+08, 1.497680510426352E+08, 1.642852866311004E+08,
2460833.500000000, A.D. 2025-Jun-07 00:00:00.0000, 3.764150620527841E+08, 1.581673019874204E+08, 1.651128774797910E+08,
2460840.500000000, A.D. 2025-Jun-14 00:00:00.0000, 3.726694356978099E+08, 1.664766740413263E+08, 1.658466229456972E+08,
2460847.500000000, A.D. 2025-Jun-21 00:00:00.0000, 3.687122183916560E+08, 1.746915444451967E+08, 1.664862037772834E+08,
2460854.500000000, A.D. 2025-Jun-28 00:00:00.0000, 3.645457854535437E+08, 1.828073122829327E+08, 1.670313160552828E+08,
2460861.500000000, A.D. 2025-Jul-05 00:00:00.0000, 3.601725427002522E+08, 1.908193950787444E+08, 1.674816708001925E+08,
2460868.500000000, A.D. 2025-Jul-12 00:00:00.0000, 3.555949283915628E+08, 1.987232260018526E+08, 1.678369937359473E+08,
2460875.500000000, A.D. 2025-Jul-19 00:00:00.0000, 3.508154150063210E+08, 2.065142511019144E+08, 1.680970251456507E+08,
2460882.500000000, A.D. 2025-Jul-26 00:00:00.0000, 3.458365110606222E+08, 2.141879265166700E+08, 1.682615197956217E+08,
2460889.500000000, A.D. 2025-Aug-02 00:00:00.0000, 3.406607630352196E+08, 2.217397156715548E+08, 1.683302469233078E+08,
2460896.500000000, A.D. 2025-Aug-09 00:00:00.0000, 3.352907574371892E+08, 2.291650864553161E+08, 1.683029902852468E+08,
2460903.500000000, A.D. 2025-Aug-16 00:00:00.0000, 3.297291230744516E+08, 2.364595083082940E+08, 1.681795482526914E+08,
2460910.500000000, A.D. 2025-Aug-23 00:00:00.0000, 3.239785338382288E+08, 2.436184492410809E+08, 1.679597339304182E+08,
2460917.500000000, A.D. 2025-Aug-30 00:00:00.0000, 3.180417123262401E+08, 2.506373734990555E+08, 1.676433753289809E+08,
2460924.500000000, A.D. 2025-Sep-06 00:00:00.0000, 3.119214328921940E+08, 2.575117408740597E+08, 1.672303158039886E+08,
2460931.500000000, A.D. 2025-Sep-13 00:00:00.0000, 3.056205224546425E+08, 2.642370051835367E+08, 1.667204147160015E+08,
2460938.500000000, A.D. 2025-Sep-20 00:00:00.0000, 2.991418623465667E+08, 2.708086102764792E+08, 1.661135478821586E+08,
2460945.500000000, A.D. 2025-Sep-27 00:00:00.0000, 2.924883922726473E+08, 2.772219866788629E+08, 1.654096079800596E+08,
2460952.500000000, A.D. 2025-Oct-04 00:00:00.0000, 2.856631143636323E+08, 2.834725494197037E+08, 1.646085051349147E+08,
2460959.500000000, A.D. 2025-Oct-11 00:00:00.0000, 2.786690969607199E+08, 2.895556960985424E+08, 1.637101676501454E+08,
2460966.500000000, A.D. 2025-Oct-18 00:00:00.0000, 2.715094784211889E+08, 2.954668049247399E+08, 1.627145428365876E+08,
2460973.500000000, A.D. 2025-Oct-25 00:00:00.0000, 2.641874710930075E+08, 3.012012327451689E+08, 1.616215979322704E+08,
2460980.500000000, A.D. 2025-Nov-01 00:00:00.0000, 2.567063655065388E+08, 3.067543130822295E+08, 1.604313211144926E+08,
2460987.500000000, A.D. 2025-Nov-08 00:00:00.0000, 2.490695348269661E+08, 3.121213541581924E+08, 1.591437226027529E+08,
2460994.500000000, A.D. 2025-Nov-15 00:00:00.0000, 2.412804397247319E+08, 3.172976368559780E+08, 1.577588358388457E+08,
2461001.500000000, A.D. 2025-Nov-22 00:00:00.0000, 2.333426340768171E+08, 3.222784128466601E+08, 1.562767187305142E+08,
2461008.500000000, A.D. 2025-Nov-29 00:00:00.0000, 2.252597713568684E+08, 3.270589040295606E+08, 1.546974550710236E+08,
2461015.500000000, A.D. 2025-Dec-06 00:00:00.0000, 2.170356094464626E+08, 3.316343031595708E+08, 1.530211563368011E+08,
2461022.500000000, A.D. 2025-Dec-13 00:00:00.0000, 2.086740143091652E+08, 3.359997723064278E+08, 1.512479635545799E+08,
2461029.500000000, A.D. 2025-Dec-20 00:00:00.0000, 2.001789660334429E+08, 3.401504401881849E+08, 1.493780490117338E+08,
2461036.500000000, A.D. 2025-Dec-27 00:00:00.0000, 1.915545661848937E+08, 3.440814009877734E+08, 1.474116181289789E+08,
2461043.500000000, A.D. 2026-Jan-03 00:00:00.0000, 1.828050450209148E+08, 3.477877140561633E+08, 1.453489115875014E+08,
2461050.500000000, A.D. 2026-Jan-10 00:00:00.0000, 1.739347686902519E+08, 3.512644038454770E+08, 1.431902076547934E+08,
2461057.500000000, A.D. 2026-Jan-17 00:00:00.0000, 1.649482466633089E+08, 3.545064600053270E+08, 1.409358246909343E+08,
2461064.500000000, A.D. 2026-Jan-24 00:00:00.0000, 1.558501394845307E+08, 3.575088376923919E+08, 1.385861238410041E+08,
2461071.500000000, A.D. 2026-Jan-31 00:00:00.0000, 1.466452668834118E+08, 3.602664581159716E+08, 1.361415119223233E+08,
2461078.500000000, A.D. 2026-Feb-07 00:00:00.0000, 1.373386163182493E+08, 3.627742092954600E+08, 1.336024445082545E+08,
2461085.500000000, A.D. 2026-Feb-14 00:00:00.0000, 1.279353522176273E+08, 3.650269470514138E+08, 1.309694291969996E+08,
2461092.500000000, A.D. 2026-Feb-21 00:00:00.0000, 1.184408263188278E+08, 3.670194968487188E+08, 1.282430290911438E+08,
2461099.500000000, A.D. 2026-Feb-28 00:00:00.0000, 1.088605880306778E+08, 3.687466576902041E+08, 1.254238666962796E+08,
2461106.500000000, A.D. 2026-Mar-07 00:00:00.0000, 9.920039277178141E+07, 3.702032061559227E+08, 1.225126282809907E+08,
2461113.500000000, A.D. 2026-Mar-14 00:00:00.0000, 8.946621106374766E+07, 3.713838983080326E+08, 1.195100682682549E+08,
2461120.500000000, A.D. 2026-Mar-21 00:00:00.0000, 7.966424016894525E+07, 3.722834724219716E+08, 1.164170137506118E+08,
2461127.500000000, A.D. 2026-Mar-28 00:00:00.0000, 6.980091626970309E+07, 3.728966536368294E+08, 1.132343694145209E+08,
2461134.500000000, A.D. 2026-Apr-04 00:00:00.0000, 5.988292658657695E+07, 3.732181596278747E+08, 1.099631228668719E+08,
2461141.500000000, A.D. 2026-Apr-11 00:00:00.0000, 4.991722170772734E+07, 3.732427070166755E+08, 1.066043503260837E+08,
2461148.500000000, A.D. 2026-Apr-18 00:00:00.0000, 3.991102828319621E+07, 3.729650185931208E+08, 1.031592226788695E+08,
2461155.500000000, A.D. 2026-Apr-25 00:00:00.0000, 2.987186211837455E+07, 3.723798314502883E+08, 9.962901191469626E+07,
2461162.500000000, A.D. 2026-May-02 00:00:00.0000, 1.980754167726949E+07, 3.714819060954845E+08, 9.601509794739513E+07,
2461169.500000000, A.D. 2026-May-09 00:00:00.0000, 9.726202090584423E+06, 3.702660365736669E+08, 9.231897582289732E+07,
2461176.500000000, A.D. 2026-May-16 00:00:00.0000, -3.636899917389109E+05, 3.687270618557438E+08, 8.854226330714065E+07,
2461183.500000000, A.D. 2026-May-23 00:00:00.0000, -1.045332069756768E+07, 3.668598796407735E+08, 8.468670895071897E+07,
2461190.500000000, A.D. 2026-May-30 00:00:00.0000, -2.053351450983881E+07, 3.646594630272894E+08, 8.075420086189190E+07,
2461197.500000000, A.D. 2026-Jun-06 00:00:00.0000, -3.059472150583267E+07, 3.621208769154535E+08, 7.674677595765524E+07,
2461204.500000000, A.D. 2026-Jun-13 00:00:00.0000, -4.062700268005927E+07, 3.592392944829497E+08, 7.266662937856522E+07,
2461211.500000000, A.D. 2026-Jun-20 00:00:00.0000, -5.062001395436389E+07, 3.560100168213092E+08, 6.851612435641122E+07,
2461218.500000000, A.D. 2026-Jun-27 00:00:00.0000, -6.056299069269812E+07, 3.524284955560173E+08, 6.429780265942563E+07,
2461225.500000000, A.D. 2026-Jul-04 00:00:00.0000, -7.044473286504643E+07, 3.484903578424580E+08, 6.001439554194883E+07,
2461232.500000000, A.D. 2026-Jul-11 00:00:00.0000, -8.025359077743883E+07, 3.441914337796460E+08, 5.566883514830576E+07,
2461239.500000000, A.D. 2026-Jul-18 00:00:00.0000, -8.997745147438717E+07, 3.395277864460416E+08, 5.126426634000862E+07,
2461246.500000000, A.D. 2026-Jul-25 00:00:00.0000, -9.960372601972425E+07, 3.344957447404550E+08, 4.680405890958294E+07,
2461253.500000000, A.D. 2026-Aug-01 00:00:00.0000, -1.091193378729704E+08, 3.290919391587290E+08, 4.229182012591620E+07,
2461260.500000000, A.D. 2026-Aug-08 00:00:00.0000, -1.185107124499228E+08, 3.233133406437725E+08, 3.773140752764498E+07,
2461267.500000000, A.D. 2026-Aug-15 00:00:00.0000, -1.277637677984362E+08, 3.171573031231028E+08, 3.312694188630287E+07,
2461274.500000000, A.D. 2026-Aug-22 00:00:00.0000, -1.368639075430558E+08, 3.106216111064031E+08, 2.848282041342978E+07,
2461281.500000000, A.D. 2026-Aug-29 00:00:00.0000, -1.457960188248698E+08, 3.037045311031394E+08, 2.380373019218481E+07,
2461288.500000000, A.D. 2026-Sep-05 00:00:00.0000, -1.545444735842273E+08, 2.964048640844156E+08, 1.909466126085009E+07,
2461295.500000000, A.D. 2026-Sep-12 00:00:00.0000, -1.630931312749946E+08, 2.887220015343474E+08, 1.436091915923317E+07,
2461302.500000000, A.D. 2026-Sep-19 00:00:00.0000, -1.714253454830616E+08, 2.806559866497666E+08, 9.608137039130643E+06,
$$EOE